start=new Date('2022-03-30T00:00:00.000Z').valueOf();
sats=[{"SITE":"AFETR","RCS_SIZE":"LARGE","CENTER_NAME":"EARTH","CLASSIFICATION_TYPE":"U","RA_OF_ASC_NODE":"266.8101","GP_ID":"200020063","LAUNCH_DATE":"2021-03-14","INCLINATION":"53.0541","ECCENTRICITY":"0.00014650","DECAY_DATE":null,"MEAN_MOTION":"15.16896573","PERIOD":"94.931","MEAN_ELEMENT_THEORY":"SGP4","FILE":"3379484","MEAN_ANOMALY":"302.4767","OBJECT_NAME":"STARLINK-2352","OBJECT_TYPE":"PAYLOAD","EPHEMERIS_TYPE":"0","COUNTRY_CODE":"US","APOAPSIS":"516.239","NORAD_CAT_ID":"47892","TIME_SYSTEM":"UTC","MEAN_MOTION_DOT":"-0.00000370","MEAN_MOTION_DDOT":"0.0000000000000","BSTAR":"-0.00000290140000","EPOCH":"2022-03-29T21:53:33.381888","TLE_LINE1":"1 47892U 21021AJ  22088.91219192 -.00000370  00000-0 -29014-5 0  9993","REF_FRAME":"TEME","REV_AT_EPOCH":"5893","PERIAPSIS":"514.219","OBJECT_ID":"2021-021AJ","ARG_OF_PERICENTER":"57.6368","ELEMENT_SET_NO":"999","TLE_LINE2":"2 47892  53.0541 266.8101 0001465  57.6368 302.4767 15.16896573 58930","SEMIMAJOR_AXIS":"6893.364"},{"LAUNCH_DATE":"2021-03-14","ECCENTRICITY":"0.00015400","INCLINATION":"53.0549","DECAY_DATE":null,"MEAN_MOTION":"15.06392594","PERIOD":"95.593","SITE":"AFETR","RCS_SIZE":"LARGE","CENTER_NAME":"EARTH","CLASSIFICATION_TYPE":"U","RA_OF_ASC_NODE":"259.8357","GP_ID":"200019313","EPHEMERIS_TYPE":"0","COUNTRY_CODE":"US","APOAPSIS":"548.303","NORAD_CAT_ID":"47894","TIME_SYSTEM":"UTC","MEAN_ELEMENT_THEORY":"SGP4","FILE":"3379484","MEAN_ANOMALY":"301.4687","OBJECT_NAME":"STARLINK-2354","OBJECT_TYPE":"PAYLOAD","BSTAR":"0.00001406400000","MEAN_MOTION_DDOT":"0.0000000000000","EPOCH":"2022-03-29T20:14:09.702240","TLE_LINE1":"1 47894U 21021AL  22088.84316785 -.00000072  00000-0  14064-4 0  9999","MEAN_MOTION_DOT":"-0.00000072","ARG_OF_PERICENTER":"58.6452","ELEMENT_SET_NO":"999","TLE_LINE2":"2 47894  53.0549 259.8357 0001540  58.6452 301.4687 15.06392594 58971","SEMIMAJOR_AXIS":"6925.371","REF_FRAME":"TEME","REV_AT_EPOCH":"5897","PERIAPSIS":"546.170","OBJECT_ID":"2021-021AL"},{"CLASSIFICATION_TYPE":"U","CENTER_NAME":"EARTH","RCS_SIZE":"LARGE","SITE":"AFETR","GP_ID":"200019563","RA_OF_ASC_NODE":"259.7931","DECAY_DATE":null,"INCLINATION":"53.0528","ECCENTRICITY":"0.00014840","LAUNCH_DATE":"2021-03-14","PERIOD":"95.592","MEAN_MOTION":"15.06398146","MEAN_ANOMALY":"289.0698","FILE":"3379484","MEAN_ELEMENT_THEORY":"SGP4","OBJECT_TYPE":"PAYLOAD","OBJECT_NAME":"STARLINK-2355","COUNTRY_CODE":"US","EPHEMERIS_TYPE":"0","TIME_SYSTEM":"UTC","NORAD_CAT_ID":"47895","APOAPSIS":"548.247","MEAN_MOTION_DOT":"-0.00000259","MEAN_MOTION_DDOT":"0.0000000000000","BSTAR":"0.00000152900000","TLE_LINE1":"1 47895U 21021AM  22088.85421815 -.00000259  00000-0  15290-5 0  9992","EPOCH":"2022-03-29T20:30:04.448160","PERIAPSIS":"546.192","REV_AT_EPOCH":"5900","REF_FRAME":"TEME","OBJECT_ID":"2021-021AM","TLE_LINE2":"2 47895  53.0528 259.7931 0001484  71.0452 289.0698 15.06398146 59009","ELEMENT_SET_NO":"999","ARG_OF_PERICENTER":"71.0452","SEMIMAJOR_AXIS":"6925.354"},{"APOAPSIS":"548.247","NORAD_CAT_ID":"47896","TIME_SYSTEM":"UTC","COUNTRY_CODE":"US","EPHEMERIS_TYPE":"0","OBJECT_TYPE":"PAYLOAD","OBJECT_NAME":"STARLINK-2356","MEAN_ANOMALY":"294.0479","MEAN_ELEMENT_THEORY":"SGP4","FILE":"3379484","MEAN_MOTION":"15.06401953","PERIOD":"95.592","INCLINATION":"53.0554","ECCENTRICITY":"0.00015010","DECAY_DATE":null,"LAUNCH_DATE":"2021-03-14","RA_OF_ASC_NODE":"274.8211","GP_ID":"200020315","CLASSIFICATION_TYPE":"U","CENTER_NAME":"EARTH","SITE":"AFETR","RCS_SIZE":"LARGE","SEMIMAJOR_AXIS":"6925.343","ELEMENT_SET_NO":"999","TLE_LINE2":"2 47896  53.0554 274.8211 0001501  66.0668 294.0479 15.06401953 58767","ARG_OF_PERICENTER":"66.0668","OBJECT_ID":"2021-021AN","PERIAPSIS":"546.168","REF_FRAME":"TEME","REV_AT_EPOCH":"5876","TLE_LINE1":"1 47896U 21021AN  22088.84731247  .00000921  00000-0  80725-4 0  9994","EPOCH":"2022-03-29T20:20:07.797408","MEAN_MOTION_DDOT":"0.0000000000000","BSTAR":"0.00008072500000","MEAN_MOTION_DOT":"0.00000921"},{"MEAN_MOTION":"15.06387756","PERIOD":"95.593","ECCENTRICITY":"0.00016070","INCLINATION":"53.0521","DECAY_DATE":null,"LAUNCH_DATE":"2021-03-14","RA_OF_ASC_NODE":"260.0731","GP_ID":"200020563","CENTER_NAME":"EARTH","CLASSIFICATION_TYPE":"U","SITE":"AFETR","RCS_SIZE":"LARGE","APOAPSIS":"548.364","NORAD_CAT_ID":"47897","TIME_SYSTEM":"UTC","COUNTRY_CODE":"US","EPHEMERIS_TYPE":"0","OBJECT_TYPE":"PAYLOAD","OBJECT_NAME":"STARLINK-2357","MEAN_ANOMALY":"300.3293","MEAN_ELEMENT_THEORY":"SGP4","FILE":"3379484","TLE_LINE1":"1 47897U 21021AP  22088.78693990 -.00001070  00000-0 -52984-4 0  9994","EPOCH":"2022-03-29T18:53:11.607360","BSTAR":"-0.00005298400000","MEAN_MOTION_DDOT":"0.0000000000000","MEAN_MOTION_DOT":"-0.00001070","SEMIMAJOR_AXIS":"6925.386","ELEMENT_SET_NO":"999","TLE_LINE2":"2 47897  53.0521 260.0731 0001607  59.7855 300.3293 15.06387756 59029","ARG_OF_PERICENTER":"59.7855","OBJECT_ID":"2021-021AP","PERIAPSIS":"546.138","REF_FRAME":"TEME","REV_AT_EPOCH":"5902"},{"ARG_OF_PERICENTER":"70.7492","TLE_LINE2":"2 47898  53.0553 259.8244 0001347  70.7492 289.3643 15.06391079 58972","ELEMENT_SET_NO":"999","SEMIMAJOR_AXIS":"6925.376","REV_AT_EPOCH":"5897","REF_FRAME":"TEME","PERIAPSIS":"546.308","OBJECT_ID":"2021-021AQ","BSTAR":"-0.00006519900000","MEAN_MOTION_DDOT":"0.0000000000000","EPOCH":"2022-03-29T20:19:28.737696","TLE_LINE1":"1 47898U 21021AQ  22088.84686039 -.00001252  00000-0 -65199-4 0  9992","MEAN_MOTION_DOT":"-0.00001252","EPHEMERIS_TYPE":"0","COUNTRY_CODE":"US","TIME_SYSTEM":"UTC","NORAD_CAT_ID":"47898","APOAPSIS":"548.174","FILE":"3379484","MEAN_ELEMENT_THEORY":"SGP4","MEAN_ANOMALY":"289.3643","OBJECT_NAME":"STARLINK-2358","OBJECT_TYPE":"PAYLOAD","LAUNCH_DATE":"2021-03-14","DECAY_DATE":null,"ECCENTRICITY":"0.00013470","INCLINATION":"53.0553","PERIOD":"95.593","MEAN_MOTION":"15.06391079","SITE":"AFETR","RCS_SIZE":"LARGE","CENTER_NAME":"EARTH","CLASSIFICATION_TYPE":"U","GP_ID":"200018814","RA_OF_ASC_NODE":"259.8244"},{"SITE":"AFETR","RCS_SIZE":"LARGE","CLASSIFICATION_TYPE":"U","CENTER_NAME":"EARTH","RA_OF_ASC_NODE":"249.8363","GP_ID":"200019064","LAUNCH_DATE":"2021-03-14","ECCENTRICITY":"0.00014210","INCLINATION":"53.0518","DECAY_DATE":null,"MEAN_MOTION":"15.06416822","PERIOD":"95.591","MEAN_ELEMENT_THEORY":"SGP4","FILE":"3379484","MEAN_ANOMALY":"289.4136","OBJECT_NAME":"STARLINK-2359","OBJECT_TYPE":"PAYLOAD","EPHEMERIS_TYPE":"0","COUNTRY_CODE":"US","APOAPSIS":"548.146","NORAD_CAT_ID":"47899","TIME_SYSTEM":"UTC","MEAN_MOTION_DOT":"0.00016656","MEAN_MOTION_DDOT":"0.0000000000000","BSTAR":"0.00113390000000","EPOCH":"2022-03-29T20:15:29.383776","TLE_LINE1":"1 47899U 21021AR  22088.84409009  .00016656  00000-0  11339-2 0  9990","REF_FRAME":"TEME","REV_AT_EPOCH":"5917","PERIAPSIS":"546.178","OBJECT_ID":"2021-021AR","ARG_OF_PERICENTER":"70.7006","ELEMENT_SET_NO":"999","TLE_LINE2":"2 47899  53.0518 249.8363 0001421  70.7006 289.4136 15.06416822 59174","SEMIMAJOR_AXIS":"6925.297"},{"TIME_SYSTEM":"UTC","NORAD_CAT_ID":"47900","APOAPSIS":"548.164","COUNTRY_CODE":"US","EPHEMERIS_TYPE":"0","OBJECT_TYPE":"PAYLOAD","OBJECT_NAME":"STARLINK-2360","MEAN_ANOMALY":"289.9418","FILE":"3379484","MEAN_ELEMENT_THEORY":"SGP4","PERIOD":"95.592","MEAN_MOTION":"15.06397696","DECAY_DATE":null,"INCLINATION":"53.0549","ECCENTRICITY":"0.00013620","LAUNCH_DATE":"2021-03-14","GP_ID":"200019816","RA_OF_ASC_NODE":"259.7261","CLASSIFICATION_TYPE":"U","CENTER_NAME":"EARTH","RCS_SIZE":"LARGE","SITE":"AFETR","SEMIMAJOR_AXIS":"6925.356","TLE_LINE2":"2 47900  53.0549 259.7261 0001362  70.1718 289.9418 15.06397696 59036","ELEMENT_SET_NO":"999","ARG_OF_PERICENTER":"70.1718","OBJECT_ID":"2021-021AS","PERIAPSIS":"546.277","REV_AT_EPOCH":"5903","REF_FRAME":"TEME","TLE_LINE1":"1 47900U 21021AS  22088.86802699 -.00000714  00000-0 -29030-4 0  9996","EPOCH":"2022-03-29T20:49:57.531936","BSTAR":"-0.00002903000000","MEAN_MOTION_DDOT":"0.0000000000000","MEAN_MOTION_DOT":"-0.00000714"},{"PERIAPSIS":"546.121","REV_AT_EPOCH":"5915","REF_FRAME":"TEME","OBJECT_ID":"2021-021AT","TLE_LINE2":"2 47901  53.0552 249.9095 0001514  66.5679 293.5469 15.06414330 59156","ELEMENT_SET_NO":"999","ARG_OF_PERICENTER":"66.5679","SEMIMAJOR_AXIS":"6925.305","MEAN_MOTION_DOT":"0.00004314","BSTAR":"0.00030821000000","MEAN_MOTION_DDOT":"0.0000000000000","TLE_LINE1":"1 47901U 21021AT  22088.82470322  .00004314  00000-0  30821-3 0  9994","EPOCH":"2022-03-29T19:47:34.358208","MEAN_ANOMALY":"293.5469","FILE":"3379484","MEAN_ELEMENT_THEORY":"SGP4","OBJECT_TYPE":"PAYLOAD","OBJECT_NAME":"STARLINK-2361","COUNTRY_CODE":"US","EPHEMERIS_TYPE":"0","TIME_SYSTEM":"UTC","APOAPSIS":"548.218","NORAD_CAT_ID":"47901","CENTER_NAME":"EARTH","CLASSIFICATION_TYPE":"U","RCS_SIZE":"LARGE","SITE":"AFETR","GP_ID":"200020064","RA_OF_ASC_NODE":"249.9095","DECAY_DATE":null,"ECCENTRICITY":"0.00015140","INCLINATION":"53.0552","LAUNCH_DATE":"2021-03-14","PERIOD":"95.591","MEAN_MOTION":"15.06414330"},{"MEAN_MOTION_DOT":"0.00000869","EPOCH":"2022-03-29T21:11:12.356160","TLE_LINE1":"1 47902U 21021AU  22088.88278190  .00000869  00000-0  77212-4 0  9997","BSTAR":"0.00007721200000","MEAN_MOTION_DDOT":"0.0000000000000","OBJECT_ID":"2021-021AU","REF_FRAME":"TEME","REV_AT_EPOCH":"5899","PERIAPSIS":"546.126","SEMIMAJOR_AXIS":"6925.337","ARG_OF_PERICENTER":"70.5187","ELEMENT_SET_NO":"999","TLE_LINE2":"2 47902  53.0533 269.6414 0001554  70.5187 289.5970 15.06403770 58992","RA_OF_ASC_NODE":"269.6414","GP_ID":"200019314","SITE":"AFETR","RCS_SIZE":"LARGE","CLASSIFICATION_TYPE":"U","CENTER_NAME":"EARTH","MEAN_MOTION":"15.06403770","PERIOD":"95.592","LAUNCH_DATE":"2021-03-14","ECCENTRICITY":"0.00015540","INCLINATION":"53.0533","DECAY_DATE":null,"OBJECT_NAME":"STARLINK-2362","OBJECT_TYPE":"PAYLOAD","MEAN_ELEMENT_THEORY":"SGP4","FILE":"3379484","MEAN_ANOMALY":"289.5970","NORAD_CAT_ID":"47902","APOAPSIS":"548.278","TIME_SYSTEM":"UTC","EPHEMERIS_TYPE":"0","COUNTRY_CODE":"US"}];
